      2.10          N: GNSS NAV DATA                        RINEX VERSION / TYPE
fic2rin                                 09/08/2018 00:07:47 PGM / RUN BY / DATE
                                                            END OF HEADER
 6 18  9  7 11 59 44.0 3.667133860290e-04-4.888534022029e-12 0.000000000000e+00
    2.300000000000e+01-1.019687500000e+02 4.546617956316e-09 4.152839006642e-01
   -5.317851901054e-06 9.734431514516e-04 2.993270754814e-06 5.153695320129e+03
    4.751840000000e+05 5.401670932770e-08 1.770871475265e+00-2.421438694000e-08
    9.718380610247e-01 3.299687500000e+02-1.092119239630e+00-8.368205712214e-09
   -4.139458139333e-10 1.000000000000e+00 2.017000000000e+03 0.000000000000e+00
    2.400000000000e+00 0.000000000000e+00 4.656612873077e-09 2.300000000000e+01
    4.680060000000e+05 4.000000000000e+00
 8 18  9  7 11 59 44.0-1.143086701632e-04-1.250555214938e-12 0.000000000000e+00
    5.600000000000e+01 1.132500000000e+02 4.724482507946e-09 2.737301928367e+00
    5.936250090599e-06 3.512868541293e-03 3.557652235031e-06 5.153620714188e+03
    4.751840000000e+05-6.519258022308e-08 7.134711349823e-01 6.891787052155e-08
    9.696954434103e-01 3.153750000000e+02-4.078357414585e-01-8.393921069076e-09
    4.196603376804e-10 1.000000000000e+00 2.017000000000e+03 0.000000000000e+00
    2.400000000000e+00 0.000000000000e+00 5.122274160385e-09 5.600000000000e+01
    4.680060000000e+05 4.000000000000e+00
14 18  9  7 11 59 44.0-9.739631786942e-05 1.136868377216e-13 0.000000000000e+00
    2.800000000000e+01 3.893750000000e+01 4.745197656529e-09 2.087019047006e+00
    1.963227987289e-06 1.006773055997e-02 6.470829248428e-06 5.153614183426e+03
    4.751840000000e+05 3.911554813385e-08-2.337589453549e+00-2.160668373108e-07
    9.608788399120e-01 2.523750000000e+02-1.941619585461e+00-8.091765625946e-09
    5.150214527108e-10 1.000000000000e+00 2.017000000000e+03 0.000000000000e+00
    2.400000000000e+00 0.000000000000e+00-9.778887033463e-09 2.800000000000e+01
    4.680060000000e+05 4.000000000000e+00
16 18  9  7 11 59 44.0 1.012161374092e-05-1.705302565824e-12 0.000000000000e+00
    1.800000000000e+01 9.859375000000e+01 3.614079112330e-09-2.944409028535e+00
    4.902482032776e-06 9.986200137064e-03 1.307763159275e-05 5.153701463699e+03
    4.751840000000e+05-7.450580596924e-08-2.369386169644e-01-1.490116119385e-07
    9.863305745475e-01 1.432187500000e+02 5.218789393583e-01-7.402094041214e-09
   -2.964409193827e-11 1.000000000000e+00 2.017000000000e+03 0.000000000000e+00
    2.400000000000e+00 0.000000000000e+00-1.071020960808e-08 1.800000000000e+01
    4.680060000000e+05 4.000000000000e+00
 1 18  9  7 12  0  0.0-8.528167381883e-05-4.433786671143e-12 0.000000000000e+00
    9.400000000000e+01-1.124687500000e+02 4.677337687032e-09 1.773945112963e-01
   -5.755573511124e-06 8.113668416627e-03 3.209337592125e-06 5.153664598465e+03
    4.752000000000e+05 3.539025783539e-08 1.779194482889e+00 1.359730958939e-07
    9.721424957399e-01 3.198437500000e+02 6.905940425396e-01-8.551070472123e-09
   -4.818057834305e-10 1.000000000000e+00 2.017000000000e+03 0.000000000000e+00
    3.400000000000e+00 0.000000000000e+00 5.587935447693e-09 9.400000000000e+01
    4.680060000000e+05 4.000000000000e+00
 3 18  9  7 12  0  0.0 1.329132355750e-04 5.343281372916e-12 0.000000000000e+00
    2.200000000000e+01-8.043750000000e+01 4.140172454801e-09-8.475594997295e-01
   -4.265457391739e-06 1.720057451166e-03 1.326203346252e-05 5.153693111420e+03
    4.752000000000e+05 5.774199962616e-08 2.822084969681e+00 5.774199962616e-08
    9.619445055127e-01 1.246875000000e+02 6.084052348173e-01-7.789610182817e-09
    5.785955293977e-11 1.000000000000e+00 2.017000000000e+03 0.000000000000e+00
    2.400000000000e+00 0.000000000000e+00 1.862645149231e-09 2.200000000000e+01
    4.680060000000e+05 4.000000000000e+00
 2 18  9  7 12  0  0.0 5.275476723909e-06-1.102762325900e-11 0.000000000000e+00
    1.500000000000e+02-8.387500000000e+01 5.207002606845e-09 4.728996330707e-01
   -4.362314939499e-06 1.813939725980e-02 2.659857273102e-06 5.153548851013e+03
    4.752000000000e+05-2.253800630569e-07 1.715902189459e+00-1.490116119385e-08
    9.512096550716e-01 3.287812500000e+02-1.831987433744e+00-8.972516598474e-09
   -4.453756945425e-10 1.000000000000e+00 2.017000000000e+03 0.000000000000e+00
    4.850000000000e+00 0.000000000000e+00-2.048909664154e-08 1.500000000000e+02
    4.680060000000e+05 4.000000000000e+00
 7 18  9  7 12  0  0.0 1.283320598304e-04-6.593836587854e-12 0.000000000000e+00
    2.600000000000e+01-3.053125000000e+01 5.013780272645e-09-4.671931305034e-01
   -1.396983861923e-06 1.208469609264e-02 6.558373570442e-06 5.153633424759e+03
    4.752000000000e+05 1.192092895508e-07-1.350527993426e+00 1.490116119385e-07
    9.572505792489e-01 2.510312500000e+02-2.494511372834e+00-8.452494937485e-09
   -4.214461263514e-10 1.000000000000e+00 2.017000000000e+03 0.000000000000e+00
    2.400000000000e+00 0.000000000000e+00-1.117587089539e-08 2.600000000000e+01
    4.680060000000e+05 4.000000000000e+00
 5 18  9  7 12  0  0.0-2.247281372547e-06 4.547473508865e-13 0.000000000000e+00
    9.800000000000e+01-7.821875000000e+01 4.409826544119e-09 3.124696634420e+00
   -4.073604941368e-06 5.628215614706e-03 1.240521669388e-05 5.153787189484e+03
    4.752000000000e+05 3.166496753693e-08 2.798862407671e+00-4.842877388000e-08
    9.488168111715e-01 1.345000000000e+02 6.743313279208e-01-7.857827310048e-09
    5.750239520557e-11 1.000000000000e+00 2.017000000000e+03 0.000000000000e+00
    2.400000000000e+00 0.000000000000e+00-1.117587089539e-08 9.800000000000e+01
    4.680060000000e+05 4.000000000000e+00
 4 18  9  7 12  0  0.0 9.683845564723e-05 3.979039320257e-12 0.000000000000e+00
    6.900000000000e+01 7.518750000000e+01 5.121999066106e-09-2.684836554128e+00
    3.622844815254e-06 9.775719023310e-03 1.244992017746e-05 5.153732524872e+03
    4.752000000000e+05 1.136213541031e-07-2.914454626619e-01-1.341104507446e-07
    9.782907893267e-01 1.483750000000e+02 9.285019714683e-01-7.493526421168e-09
   -5.357366012941e-11 1.000000000000e+00 2.017000000000e+03 0.000000000000e+00
    3.400000000000e+00 6.300000000000e+01-1.955777406693e-08 6.900000000000e+01
    4.680060000000e+05 4.000000000000e+00
22 18  9  7 12  0  0.0-5.122087895870e-04-1.102762325900e-11 0.000000000000e+00
    3.300000000000e+01-9.415625000000e+01 4.999493963277e-09 1.623070839964e+00
   -5.094334483147e-06 7.102127303369e-03 1.297891139984e-05 5.153728933334e+03
    4.752000000000e+05 6.146728992462e-08 2.758739386534e+00-1.341104507446e-07
    9.260956687219e-01 1.083437500000e+02-1.485387241392e+00-8.178554955356e-09
    2.928693420408e-11 1.000000000000e+00 2.017000000000e+03 0.000000000000e+00
    2.400000000000e+00 0.000000000000e+00-1.816079020500e-08 3.300000000000e+01
    4.680060000000e+05 4.000000000000e+00
25 18  9  7 12  0  0.0-6.433911621571e-04-5.684341886081e-12 0.000000000000e+00
    2.400000000000e+01 5.793750000000e+01 4.013381459161e-09-1.479783568800e+00
    3.039836883545e-06 7.448232616298e-03 1.212209463120e-05 5.153603282928e+03
    4.752000000000e+05 1.955777406693e-07-3.168342830425e-01 9.313225746155e-09
    9.734561478988e-01 1.527187500000e+02 8.654719499921e-01-7.669962341861e-09
   -1.000041655749e-10 1.000000000000e+00 2.017000000000e+03 0.000000000000e+00
    2.400000000000e+00 0.000000000000e+00 5.587935447693e-09 2.400000000000e+01
    4.680060000000e+05 4.000000000000e+00
23 18  9  7 12  0  0.0-2.113417722285e-04 7.958078640513e-13 0.000000000000e+00
    2.400000000000e+01 4.162500000000e+01 5.153071788981e-09 9.967343783305e-01
    2.337619662285e-06 1.264016109053e-02 7.562339305878e-06 5.153729976654e+03
    4.752000000000e+05-1.788139343262e-07-2.430852240993e+00 5.215406417847e-08
    9.435679254715e-01 2.276250000000e+02-2.328835814045e+00-8.461066723105e-09
    4.089456056545e-10 1.000000000000e+00 2.017000000000e+03 0.000000000000e+00
    2.400000000000e+00 0.000000000000e+00-2.002343535423e-08 2.400000000000e+01
    4.680060000000e+05 4.000000000000e+00
15 18  9  7 12  0  0.0-3.465372137725e-04 1.023181539495e-12 0.000000000000e+00
    2.200000000000e+01 5.103125000000e+01 5.444155342351e-09 1.444898793560e+00
    2.736225724220e-06 1.060323766433e-02 8.048489689827e-06 5.153809160233e+03
    4.752000000000e+05-1.750886440277e-07-2.501576288465e+00 1.024454832077e-07
    9.283421125581e-01 2.106250000000e+02 7.043211324537e-01-8.632502435519e-09
    4.668051585943e-10 1.000000000000e+00 2.017000000000e+03 0.000000000000e+00
    2.400000000000e+00 0.000000000000e+00-1.071020960808e-08 2.200000000000e+01
    4.680060000000e+05 4.000000000000e+00
21 18  9  7 12  0  0.0-3.407527692616e-04 5.911715561524e-12 0.000000000000e+00
    2.500000000000e+01-9.287500000000e+01 5.190216193337e-09-1.587245000245e+00
   -4.438683390617e-06 2.435781608801e-02 3.322958946228e-06 5.153631006241e+03
    4.752000000000e+05-1.303851604462e-08 1.722097352016e+00 6.463378667831e-07
    9.448243658301e-01 3.027500000000e+02-1.529732952158e+00-8.600358239442e-09
   -4.289464387695e-10 1.000000000000e+00 2.017000000000e+03 0.000000000000e+00
    2.400000000000e+00 0.000000000000e+00-1.024454832077e-08 2.500000000000e+01
    4.680060000000e+05 4.000000000000e+00
26 18  9  7 12  0  0.0-2.768076956272e-05 1.170974428533e-11 0.000000000000e+00
    3.100000000000e+01 6.700000000000e+01 4.408040755448e-09-2.004333419138e+00
    3.233551979065e-06 2.882501925342e-03 1.264549791813e-05 5.153720300674e+03
    4.752000000000e+05-7.450580596924e-09-3.406216513904e-01-6.519258022308e-08
    9.549024465141e-01 1.351875000000e+02 6.983993000484e-02-7.874970881289e-09
   -1.303625729816e-10 1.000000000000e+00 2.017000000000e+03 0.000000000000e+00
    2.400000000000e+00 0.000000000000e+00 7.450580596924e-09 3.100000000000e+01
    4.680060000000e+05 4.000000000000e+00
